[{"OBJECT_NAME":"SKYSAT-C6","OBJECT_ID":"2017-068F","EPOCH":"2026-03-09T21:33:49.392576","MEAN_MOTION":15.32504544,"ECCENTRICITY":0.00036369,"INCLINATION":97.44,"RA_OF_ASC_NODE":205.7173,"ARG_OF_PERICENTER":127.5085,"MEAN_ANOMALY":232.6488,"EPHEMERIS_TYPE":0,"CLASSIFICATION_TYPE":"U","NORAD_CAT_ID":42992,"ELEMENT_SET_NO":999,"REV_AT_EPOCH":46710,"BSTAR":0.00039699196,"MEAN_MOTION_DOT":0.0001239,"MEAN_MOTION_DDOT":0},{"OBJECT_NAME":"STARLINK-32636","OBJECT_ID":"2024-231Q","EPOCH":"2026-03-09T16:48:55.764288","MEAN_MOTION":15.30208563,"ECCENTRICITY":0.00010433,"INCLINATION":53.1573,"RA_OF_ASC_NODE":219.3296,"ARG_OF_PERICENTER":53.6147,"MEAN_ANOMALY":306.495,"EPHEMERIS_TYPE":0,"CLASSIFICATION_TYPE":"U","NORAD_CAT_ID":62232,"ELEMENT_SET_NO":999,"REV_AT_EPOCH":7177,"BSTAR":0.0012223511,"MEAN_MOTION_DOT":0.00036029,"MEAN_MOTION_DDOT":0}]
